COSMOS 2426 (717)       
1 29671U 06062B   19250.64589204  .00000046  00000-0  10000-3 0  9998
2 29671  65.0818 277.5041 0021203 179.6022 285.1789  2.12961898 98852
COSMOS 2433 (720)       
1 32275U 07052A   19251.48763230 -.00000041  00000-0  10000-3 0  9994
2 32275  65.8865  38.3569 0002134 198.5597 187.3942  2.13104423 92383
COSMOS 2432 (719)       
1 32276U 07052B   19251.32465648 -.00000040  00000-0  10000-3 0  9999
2 32276  65.8994  38.4473 0008507 339.1798 232.6575  2.13103721 92373
COSMOS 2434 (721)       
1 32393U 07065A   19250.42327233  .00000046  00000-0  00000-0 0  9991
2 32393  64.6875 276.1673 0002567 156.4430  20.3933  2.13103053 91067
COSMOS 2436 (723)       
1 32395U 07065C   19250.74264019  .00000048  00000-0  10000-3 0  9996
2 32395  64.6951 276.2118 0014790 350.2866 124.2484  2.13104411 91005
COSMOS 2456 (730)       
1 36111U 09070A   19251.28653508 -.00000046  00000-0  00000+0 0  9993
2 36111  64.2043 155.7826 0004602 316.3626 335.9406  2.13103089 75746
COSMOS 2457 (733)       
1 36112U 09070B   19251.35675946 -.00000046  00000-0  00000+0 0  9992
2 36112  64.1851 155.6812 0005117 170.8352 299.9935  2.13101655 75752
COSMOS 2459 (731)       
1 36400U 10007A   19250.62566461 -.00000041  00000-0  10000-3 0  9994
2 36400  65.7884  37.3924 0024341 354.9243 305.0952  2.13102155 74088
COSMOS 2461 (735)       
1 36401U 10007B   19251.30143828 -.00000043  00000-0  10000-3 0  9991
2 36401  65.7840  37.3409 0008187  80.9721 287.9999  2.13101804 74108
COSMOS 2460 (732)       
1 36402U 10007C   19250.73307654 -.00000041  00000-0  10000-3 0  9995
2 36402  65.7740  37.3255 0002388 129.3032 203.3223  2.13101173 74085
COSMOS 2464 (736)       
1 37139U 10041C   19250.73655552  .00000048  00000-0  00000-0 0  9996
2 37139  64.2872 275.7382 0023510   6.8152 276.0423  2.13100741 70157
COSMOS 2474 (742)       
1 37829U 11055A   19251.00804447 -.00000045  00000-0  00000+0 0  9995
2 37829  64.5258 156.6982 0009154 247.5990  47.0896  2.13101930 61734
COSMOS 2476 (744)       
1 37867U 11064A   19250.46443227 -.00000043  00000-0  00000+0 0  9999
2 37867  64.5062 156.7666 0019268 240.4893  43.3318  2.13102030 61077
COSMOS 2477 (745)       
1 37868U 11064B   19250.66384920 -.00000044  00000-0  00000-0 0  9998
2 37868  64.5125 156.8123 0016630 241.2900  14.1531  2.13101808 61036
COSMOS 2475 (743)       
1 37869U 11064C   19250.66644178 -.00000044  00000-0  00000-0 0  9993
2 37869  64.5208 156.8121 0021068 264.4952 310.1144  2.13102289 61046
COSMOS 2485 (747)       
1 39155U 13019A   19250.63354547 -.00000044  00000-0  00000+0 0  9999
2 39155  64.6741 156.9685 0019755 235.8346 222.4250  2.13102112 49554
COSMOS 2492 (754)       
1 39620U 14012A   19250.73160398 -.00000042  00000-0  10000-3 0  9993
2 39620  65.6636  37.1435 0011665 331.4600 237.1107  2.13103326 42506
COSMOS 2500 (755)       
1 40001U 14032A   19251.33080809 -.00000044  00000-0  00000+0 0  9992
2 40001  65.6039  37.0603 0006862 185.5572 343.9488  2.13102640 40732
COSMOS 2501 (702K)      
1 40315U 14075A   19250.65858184  .00000045  00000-0  00000-0 0  9991
2 40315  64.0085 276.7921 0017846 210.6449 320.4301  2.13098698 37126
COSMOS 2514 (751)       
1 41330U 16008A   19251.43051697 -.00000045  00000-0  00000+0 0  9998
2 41330  65.4093  37.0008 0009900 202.2476 225.5984  2.13103079 27908
COSMOS 2516 (753)       
1 41554U 16032A   19250.75793889  .00000046  00000-0  00000-0 0  9994
2 41554  64.2302 276.7794 0015047 221.1383 301.3028  2.13101749 25492
COSMOS 2522 (752)       
1 42939U 17055A   19250.60322063  .00000045  00000-0  00000+0 0  9992
2 42939  64.4631 276.8812 0009929 244.2136  26.0362  2.13101987 15241
COSMOS 2527 (756)       
1 43508U 18053A   19251.07427381 -.00000045  00000-0  00000+0 0  9996
2 43508  64.8380 156.7428 0007556 236.3056  66.7014  2.13102712  9543
COSMOS 2529 (757)       
1 43687U 18086A   19250.66784698  .00000046  00000-0  00000+0 0  9991
2 43687  64.6742 276.9222 0012116 264.4264  11.0988  2.13102056  6551
COSMOS 2534 (758)       
1 44299U 19030A   19251.35286023  .00000050  00000-0  00000+0 0  9992
2 44299  64.7437 276.6895 0014837 281.6622 294.5794  2.13102003  2211
